[{"OBJECT_NAME":"STARLINK-5947","OBJECT_ID":"2023-042D","EPOCH":"2026-03-09T09:29:28.849056","MEAN_MOTION":15.02534572,"ECCENTRICITY":0.0001391,"INCLINATION":43.004,"RA_OF_ASC_NODE":57.923,"ARG_OF_PERICENTER":275.2329,"MEAN_ANOMALY":84.8355,"EPHEMERIS_TYPE":0,"CLASSIFICATION_TYPE":"U","NORAD_CAT_ID":55989,"ELEMENT_SET_NO":999,"REV_AT_EPOCH":16286,"BSTAR":-4.389085e-6,"MEAN_MOTION_DOT":-2.63e-6,"MEAN_MOTION_DDOT":0},{"OBJECT_NAME":"KORSAT-7","OBJECT_ID":"2023-185B","EPOCH":"2026-03-09T23:44:55.136256","MEAN_MOTION":15.00898391,"ECCENTRICITY":0.00224341,"INCLINATION":97.6243,"RA_OF_ASC_NODE":135.089,"ARG_OF_PERICENTER":307.6562,"MEAN_ANOMALY":52.2627,"EPHEMERIS_TYPE":0,"CLASSIFICATION_TYPE":"U","NORAD_CAT_ID":58463,"ELEMENT_SET_NO":999,"REV_AT_EPOCH":12440,"BSTAR":0.00023536002,"MEAN_MOTION_DOT":2.951e-5,"MEAN_MOTION_DDOT":0}]
